{
    "links": {
        "self": "http://www.neowsapp.com/rest/v1/neo/54017566?api_key=iIulBulltgU6a56xZRHN4H3l9WmuAYTsLGpBGhQ2"
    },
    "id": "54017566",
    "neo_reference_id": "54017566",
    "name": "(2020 MF1)",
    "designation": "2020 MF1",
    "nasa_jpl_url": "http://ssd.jpl.nasa.gov/sbdb.cgi?sstr=54017566",
    "absolute_magnitude_h": 27.579,
    "estimated_diameter": {
        "kilometers": {
            "estimated_diameter_min": 0.0081050365,
            "estimated_diameter_max": 0.0181234126
        },
        "meters": {
            "estimated_diameter_min": 8.1050365304,
            "estimated_diameter_max": 18.123412642
        },
        "miles": {
            "estimated_diameter_min": 0.0050362347,
            "estimated_diameter_max": 0.011261363
        },
        "feet": {
            "estimated_diameter_min": 26.5913280503,
            "estimated_diameter_max": 59.4600171325
        }
    },
    "is_potentially_hazardous_asteroid": false,
    "close_approach_data": [
        {
            "close_approach_date": "2020-06-27",
            "close_approach_date_full": "2020-Jun-27 17:17",
            "epoch_date_close_approach": 1593278220000,
            "relative_velocity": {
                "kilometers_per_second": "11.4994170947",
                "kilometers_per_hour": "41397.9015407954",
                "miles_per_hour": "25723.046099057"
            },
            "miss_distance": {
                "astronomical": "0.0027510469",
                "lunar": "1.0701572441",
                "kilometers": "411550.756510103",
                "miles": "255725.7819333014"
            },
            "orbiting_body": "Moon"
        },
        {
            "close_approach_date": "2020-06-27",
            "close_approach_date_full": "2020-Jun-27 21:13",
            "epoch_date_close_approach": 1593292380000,
            "relative_velocity": {
                "kilometers_per_second": "10.5328138722",
                "kilometers_per_hour": "37918.1299400777",
                "miles_per_hour": "23560.8513508222"
            },
            "miss_distance": {
                "astronomical": "0.003349681",
                "lunar": "1.303025909",
                "kilometers": "501105.14277947",
                "miles": "311372.297197886"
            },
            "orbiting_body": "Earth"
        }
    ],
    "orbital_data": {
        "orbit_id": "2",
        "orbit_determination_date": "2020-07-03 09:39:15",
        "first_observation_date": "2020-06-17",
        "last_observation_date": "2020-06-26",
        "data_arc_in_days": 9,
        "observations_used": 15,
        "orbit_uncertainty": "8",
        "minimum_orbit_intersection": ".00295132",
        "jupiter_tisserand_invariant": "3.731",
        "epoch_osculation": "2459020.5",
        "eccentricity": ".5222874430837",
        "semi_major_axis": "1.93299669724752",
        "inclination": "1.081427029927681",
        "ascending_node_longitude": "105.0638737995909",
        "orbital_period": "981.6238345766525",
        "perihelion_distance": ".9234167947528757",
        "perihelion_argument": "213.8848974168498",
        "aphelion_distance": "2.942576599742164",
        "perihelion_time": "2459061.595235247221",
        "mean_anomaly": "344.9287637811077",
        "mean_motion": ".3667392613335007",
        "equinox": "J2000",
        "orbit_class": {
            "orbit_class_type": "APO",
            "orbit_class_description": "Near-Earth asteroid orbits which cross the Earth’s orbit similar to that of 1862 Apollo",
            "orbit_class_range": "a (semi-major axis) > 1.0 AU; q (perihelion) < 1.017 AU"
        }
    },
    "is_sentry_object": false
}